{
  "norad_id": 68386,
  "name": "STARLINK-37198",
  "history": [
    {
      "epoch": "2026-04-02T18:00:01.999296Z",
      "apogee_km": 278.8269396493688,
      "perigee_km": 276.7742484953569,
      "latitude_deg": 23.626032434528486,
      "longitude_deg": -44.37161060428785,
      "height_km": 280.8274073484882,
      "semi_major_axis_km": 6655.937594072362,
      "eccentricity": 0.0001542,
      "inclination_deg": 97.2825,
      "raan_deg": 233.5446,
      "arg_perigee_deg": 70.5188,
      "mean_anomaly_deg": 85.6578,
      "mean_motion_rev_day": 15.98780711
    }
  ]
}